NORAD_CAT_ID,OBJECT_NAME,OBJECT_TYPE,EPOCH,MEAN_MOTION,ECCENTRICITY,INCLINATION,RA_OF_ASC_NODE,ARG_OF_PERICENTER,MEAN_ANOMALY,BSTAR,MEAN_MOTION_DOT,MEAN_MOTION_DDOT,TLE_LINE0,TLE_LINE1,TLE_LINE2,SEMIMAJOR_AXIS,PERIOD,APOGEE,PERIGEE,DECAYED
50831.0,STARLINK-3299,PAYLOAD,2022-11-25 18:47:46,15.08838216,0.0002873,53.218,155.7178,45.3688,314.7538,1.5349e-05,-4.4e-07,0.0,0 STARLINK-3299,1 50831U 22001AE  22329.78318128 -.00000044  00000-0  15349-4 0  9993,2 50831  53.2180 155.7178 0002873  45.3688 314.7538 15.08838216 49260,6917.886,95.438,541.738,537.763,0.0
50831.0,STARLINK-3299,PAYLOAD,2022-11-26 05:55:28,15.08840306,0.0002894,53.2179,153.6363,45.8771,314.2459,9.6755e-06,-1.35e-06,0.0,0 STARLINK-3299,1 50831U 22001AE  22330.24686041 -.00000135  00000-0  96755-5 0  9990,2 50831  53.2179 153.6363 0002894  45.8771 314.2459 15.08840306 50602,6917.879,95.438,541.746,537.742,0.0
50831.0,STARLINK-3299,PAYLOAD,2022-11-26 12:17:01,15.08840508,0.0002938,53.2179,152.4474,44.9714,315.1515,1.3394e-05,-7.5e-07,0.0,0 STARLINK-3299,1 50831U 22001AE  22330.51182029 -.00000075  00000-0  13394-4 0  9997,2 50831  53.2179 152.4474 0002938  44.9714 315.1515 15.08840508 49377,6917.879,95.438,541.776,537.711,0.0
50831.0,STARLINK-3299,PAYLOAD,2022-11-26 18:38:33,15.08839654,0.0002937,53.2177,151.2577,45.8033,314.3201,6.0983e-05,6.82e-06,0.0,0 STARLINK-3299,1 50831U 22001AE  22330.77677992  .00000682  00000-0  60983-4 0  9992,2 50831  53.2177 151.2577 0002937  45.8033 314.3201 15.08839654 49417,6917.880999999999,95.438,541.778,537.715,0.0
50831.0,STARLINK-3299,PAYLOAD,2022-11-27 10:32:25,15.08837387,0.0002973,53.2175,148.284,47.5598,312.5645,9.8483e-05,1.279e-05,0.0,0 STARLINK-3299,1 50831U 22001AE  22331.43918135  .00001279  00000-0  98483-4 0  9992,2 50831  53.2175 148.2840 0002973  47.5598 312.5645 15.08837387 50784,6917.888000000001,95.438,541.81,537.697,0.0
50831.0,STARLINK-3299,PAYLOAD,2022-11-27 18:29:20,15.08841615,0.0002977,53.2176,146.797,48.5264,311.5984,0.00011703,1.575e-05,0.0,0 STARLINK-3299,1 50831U 22001AE  22331.77037823  .00001575  00000-0  11703-3 0  9993,2 50831  53.2176 146.7970 0002977  48.5264 311.5984 15.08841615 49565,6917.875,95.437,541.8,537.681,0.0
50831.0,STARLINK-3299,PAYLOAD,2022-11-28 11:58:35,15.08845061,0.0003013,53.2177,143.526,50.2511,309.8746,9.1899e-05,1.174e-05,0.0,0 STARLINK-3299,1 50831U 22001AE  22332.49901653  .00001174  00000-0  91899-4 0  9994,2 50831  53.2177 143.5260 0003013  50.2511 309.8746 15.08845061 50949,6917.865,95.437,541.814,537.646,0.0
50831.0,STARLINK-3299,PAYLOAD,2022-11-28 18:20:08,15.08836133,0.0003026,53.2178,142.3364,50.7663,309.3598,1.1041e-05,-1.13e-06,0.0,0 STARLINK-3299,1 50831U 22001AE  22332.76398405 -.00000113  00000-0  11041-4 0  9993,2 50831  53.2178 142.3364 0003026  50.7663 309.3598 15.08836133 50983,6917.892,95.438,541.851,537.664,0.0
50831.0,STARLINK-3299,PAYLOAD,2022-11-29 11:49:22,15.08839235,0.0003013,53.2181,139.0644,49.0064,311.1189,-7.2781e-06,-4.05e-06,0.0,0 STARLINK-3299,1 50831U 22001AE  22333.49262290 -.00000405  00000-0 -72781-5 0  9990,2 50831  53.2181 139.0644 0003013  49.0064 311.1189 15.08839235 49827,6917.8830000000025,95.438,541.832,537.663,0.0
50831.0,STARLINK-3299,PAYLOAD,2022-11-29 18:10:55,15.08839109,0.000303,53.2181,137.875,49.4557,310.6699,-8.742999999999999e-06,-4.28e-06,0.0,0 STARLINK-3299,1 50831U 22001AE  22333.75758301 -.00000428  00000-0 -87430-5 0  9994,2 50831  53.2181 137.8750 0003030  49.4557 310.6699 15.08839109 49865,6917.8830000000025,95.438,541.844,537.6519999999998,0.0
50831.0,STARLINK-3299,PAYLOAD,2022-11-29 21:21:41,15.08841553,0.0003051,53.218,137.2806,49.9366,310.1893,5.3712e-06,-2.03e-06,0.0,0 STARLINK-3299,1 50831U 22001AE  22333.89006108 -.00000203  00000-0  53712-5 0  9996,2 50831  53.2180 137.2806 0003051  49.9366 310.1893 15.08841553 51158,6917.876,95.437,541.851,537.63,0.0
50831.0,STARLINK-3299,PAYLOAD,2022-11-30 10:04:46,15.08838674,0.0002998,53.218,134.9025,50.5099,309.6158,0.00011357,1.519e-05,0.0,0 STARLINK-3299,1 50831U 22001AE  22334.41997797  .00001519  00000-0  11357-3 0  9995,2 50831  53.2180 134.9025 0002998  50.5099 309.6158 15.08838674 49968,6917.884,95.438,541.823,537.675,0.0
50831.0,STARLINK-3299,PAYLOAD,2022-11-30 19:37:04,15.08840224,0.000303,53.218,133.1184,51.2613,308.8649,0.00011542,1.549e-05,0.0,0 STARLINK-3299,1 50831U 22001AE  22334.81741748  .00001549  00000-0  11542-3 0  9991,2 50831  53.2180 133.1184 0003030  51.2613 308.8649 15.08840224 50022,6917.88,95.438,541.841,537.649,0.0
50831.0,STARLINK-3299,PAYLOAD,2022-12-01 03:34:01,15.08831841,0.0003047,53.2179,131.6318,51.8563,308.2704,2.8748000000000013e-05,1.69e-06,0.0,0 STARLINK-3299,1 50831U 22001AE  22335.14862700  .00000169  00000-0  28748-4 0  9994,2 50831  53.2179 131.6318 0003047  51.8563 308.2704 15.08831841 51347,6917.905,95.438,541.878,537.6619999999998,0.0
50831.0,STARLINK-3299,PAYLOAD,2022-12-01 19:27:52,15.08837829,0.0003072,53.2187,128.6553,51.3027,308.8239,2.8983e-05,1.73e-06,0.0,0 STARLINK-3299,1 50831U 22001AE  22335.81102465  .00000173  00000-0  28983-4 0  9999,2 50831  53.2187 128.6553 0003072  51.3027 308.8239 15.08837829 50172,6917.887,95.438,541.877,537.627,0.0
50831.0,STARLINK-3299,PAYLOAD,2022-12-02 03:24:48,15.08842108,0.0003133,53.2181,127.1718,53.3921,306.7359,5.0537e-05,5.16e-06,0.0,0 STARLINK-3299,1 50831U 22001AE  22336.14222232  .00000516  00000-0  50537-4 0  9992,2 50831  53.2181 127.1718 0003133  53.3921 306.7359 15.08842108 51498,6917.874,95.437,541.906,537.572,0.0
50831.0,STARLINK-3299,PAYLOAD,2022-12-02 19:18:38,15.08856712,0.0003021,53.2191,124.1961,60.9625,299.1669,0.00013902,1.926e-05,0.0,0 STARLINK-3299,1 50831U 22001AE  22336.80460770  .00001926  00000-0  13902-3 0  9996,2 50831  53.2191 124.1961 0003021  60.9625 299.1669 15.08856712 51593,6917.829000000002,95.436,541.784,537.604,0.0
50831.0,STARLINK-3299,PAYLOAD,2022-12-03 03:15:34,15.08852147,0.000317,53.2196,122.7086,55.6862,304.4429,5.5856e-05,6.01e-06,0.0,0 STARLINK-3299,1 50831U 22001AE  22337.13581126  .00000601  00000-0  55856-4 0  9996,2 50831  53.2196 122.7086 0003170  55.6862 304.4429 15.08852147 51647,6917.843000000003,95.437,541.901,537.515,0.0
50831.0,STARLINK-3299,PAYLOAD,2022-12-03 09:37:06,15.08845093,0.0003233,53.2174,121.5203,55.6857,304.4441,0.00014316,1.991e-05,0.0,0 STARLINK-3299,1 50831U 22001AE  22337.40077459  .00001991  00000-0  14316-3 0  9993,2 50831  53.2174 121.5203 0003233  55.6857 304.4441 15.08845093 51685,6917.865,95.437,541.966,537.493,0.0
50831.0,STARLINK-3299,PAYLOAD,2022-12-03 15:58:39,15.08838793,0.0003133,53.2192,120.3289,56.9598,303.1694,7.426e-05,8.93e-06,0.0,0 STARLINK-3299,1 50831U 22001AE  22337.66573974  .00000893  00000-0  74260-4 0  9999,2 50831  53.2192 120.3289 0003133  56.9598 303.1694 15.08838793 51721,6917.884,95.438,541.9159999999998,537.582,0.0
50831.0,STARLINK-3299,PAYLOAD,2022-12-04 09:27:54,15.08839972,0.0002693,53.2195,117.0594,53.8452,306.2789,-1.4705e-05,-5.23e-06,0.0,0 STARLINK-3299,1 50831U 22001AE  22338.39438109 -.00000523  00000-0 -14705-4 0  9990,2 50831  53.2195 117.0594 0002693  53.8452 306.2789 15.08839972 50561,6917.88,95.438,541.6080000000002,537.882,0.0
50831.0,STARLINK-3299,PAYLOAD,2022-12-04 15:49:26,15.08845867,0.0002931,53.2193,115.8703,56.4337,303.6935,-2.1504e-05,-6.31e-06,0.0,0 STARLINK-3299,1 50831U 22001AE  22338.65933735 -.00000631  00000-0 -21504-4 0  9999,2 50831  53.2193 115.8703 0002931  56.4337 303.6935 15.08845867 50602,6917.861999999999,95.437,541.755,537.7,0.0
50831.0,STARLINK-3299,PAYLOAD,2022-12-04 20:35:35,15.08868126,0.0003012,53.2192,114.9791,54.0729,306.0542,-0.00024951,-4.261e-05,0.0,0 STARLINK-3299,1 50831U 22001AE  22338.85804941 -.00004261  00000-0 -24951-3 0  9998,2 50831  53.2192 114.9791 0003012  54.0729 306.0542 15.08868126 51906,6917.794,95.436,541.743,537.576,0.0
50831.0,STARLINK-3299,PAYLOAD,2022-12-05 09:18:41,15.08839416,0.0002921999999999,53.2192,112.6008,52.8413,307.2845,0.00010088,1.317e-05,0.0,0 STARLINK-3299,1 50831U 22001AE  22339.38797581  .00001317  00000-0  10088-3 0  9991,2 50831  53.2192 112.6008 0002922  52.8413 307.2845 15.08839416 50714,6917.882,95.438,541.769,537.726,0.0
50831.0,STARLINK-3299,PAYLOAD,2022-12-05 14:04:50,15.08838964,0.0002936,53.2191,111.709,52.894,307.232,9.7033e-05,1.256e-05,0.0,0 STARLINK-3299,1 50831U 22001AE  22339.58669667  .00001256  00000-0  97033-4 0  9994,2 50831  53.2191 111.7090 0002936  52.8940 307.2320 15.08838964 52014,6917.884,95.438,541.78,537.717,0.0
50831.0,STARLINK-3299,PAYLOAD,2022-12-05 18:50:59,15.08838997,0.0002938,53.219,110.8168,53.1368,306.9893,0.00014152,1.964e-05,0.0,0 STARLINK-3299,1 50831U 22001AE  22339.78541599  .00001964  00000-0  14152-3 0  9995,2 50831  53.2190 110.8168 0002938  53.1368 306.9893 15.08838997 50777,6917.8830000000025,95.438,541.781,537.716,0.0
50831.0,STARLINK-3299,PAYLOAD,2022-12-06 09:09:28,15.08842239,0.0002892,53.2192,108.1412,51.9306,308.1947,0.0001037,1.362e-05,0.0,0 STARLINK-3299,1 50831U 22001AE  22340.38157515  .00001362  00000-0  10370-3 0  9994,2 50831  53.2192 108.1412 0002892  51.9306 308.1947 15.08842239 50866,6917.874,95.437,541.739,537.738,0.0
50831.0,STARLINK-3299,PAYLOAD,2022-12-06 15:31:01,15.08833383,0.0002725,53.2219,106.9524,48.9982,311.1246,-1.4995e-05,-5.27e-06,0.0,0 STARLINK-3299,1 50831U 22001AE  22340.64654554 -.00000527  00000-0 -14995-4 0  9990,2 50831  53.2219 106.9524 0002725  48.9982 311.1246 15.08833383 50908,6917.901,95.438,541.651,537.88,0.0
50831.0,STARLINK-3299,PAYLOAD,2022-12-07 15:21:53,15.08772241,0.0002573,53.2195,102.4931,26.9032,333.2093,-0.00043603,-7.209e-05,0.0,0 STARLINK-3299,1 50831U 22001AE  22341.64019896 -.00007209  00000-0 -43603-3 0  9996,2 50831  53.2195 102.4931 0002573  26.9032 333.2093 15.08772241 52325,6918.0880000000025,95.442,541.7330000000002,538.172,0.0
